[{"OBJECT_NAME":"CSG-3","OBJECT_ID":"2026-001A","EPOCH":"2026-03-09T23:00:18.057312","MEAN_MOTION":14.82149464,"ECCENTRICITY":0.00014236,"INCLINATION":97.8867,"RA_OF_ASC_NODE":253.9922,"ARG_OF_PERICENTER":86.9093,"MEAN_ANOMALY":273.2283,"EPHEMERIS_TYPE":0,"CLASSIFICATION_TYPE":"U","NORAD_CAT_ID":67304,"ELEMENT_SET_NO":999,"REV_AT_EPOCH":976,"BSTAR":8.0107311e-5,"MEAN_MOTION_DOT":5.85e-6,"MEAN_MOTION_DDOT":0},{"OBJECT_NAME":"IRIDIUM 33 DEB","OBJECT_ID":"1997-051TA","EPOCH":"2026-03-09T22:54:48.048192","MEAN_MOTION":14.81351378,"ECCENTRICITY":0.00070327,"INCLINATION":86.3504,"RA_OF_ASC_NODE":304.5013,"ARG_OF_PERICENTER":265.3658,"MEAN_ANOMALY":94.676,"EPHEMERIS_TYPE":0,"CLASSIFICATION_TYPE":"U","NORAD_CAT_ID":35850,"ELEMENT_SET_NO":999,"REV_AT_EPOCH":72647,"BSTAR":0.001408196,"MEAN_MOTION_DOT":0.00011033,"MEAN_MOTION_DDOT":0}]
